{"type":"Feature","properties":{"MUN":"BOGOTA BORO","COUNTY":"BERGEN","MUN_LABEL":"Bogota Borough","MUN_TYPE":"Borough","NAME":"Bogota Borough","GNIS_NAME":"Borough of Bogota"},"geometry":{"type":"Polygon","coordinates":[[[-74.0238271,40.8742752],[-74.0237586,40.8742436],[-74.0235454,40.8741454],[-74.0230138,40.8738779],[-74.0222073,40.8735043],[-74.0219162,40.8733695],[-74.0214138,40.8731566],[-74.0210232,40.8729911],[-74.0208189,40.8729146],[-74.0208176,40.8729141],[-74.0223168,40.8656859],[-74.0223223,40.8656867],[-74.0228337,40.8657583],[-74.0229344,40.8657724],[-74.0229422,40.8657406],[-74.0229865,40.8655463],[-74.0320256,40.8680855],[-74.0358503,40.8692308],[-74.0358854,40.8700996],[-74.0359063,40.8705642],[-74.0359416,40.8712702],[-74.035933,40.871698],[-74.0359316,40.8717683],[-74.0359042,40.8720703],[-74.0358267,40.8725287],[-74.0357843,40.8727268],[-74.0356901,40.873018],[-74.0353178,40.8738989],[-74.035135,40.8744113],[-74.034947,40.8750125],[-74.034945,40.8750192],[-74.0348803,40.8752359],[-74.0348568,40.8753869],[-74.0348391,40.8756232],[-74.0348538,40.8758109],[-74.0348975,40.8759987],[-74.0349829,40.876231],[-74.035108,40.8764721],[-74.0352671,40.8766596],[-74.0354449,40.8768302],[-74.0355231,40.8768814],[-74.0355991,40.8769128],[-74.0357554,40.8769616],[-74.0360645,40.8770166],[-74.0364333,40.8770804],[-74.0369771,40.8771703],[-74.0376718,40.877292],[-74.0381597,40.8773845],[-74.038653,40.8774969],[-74.0388987,40.877563],[-74.0390736,40.8776231],[-74.0392171,40.8776713],[-74.0393449,40.8777544],[-74.0394004,40.8778226],[-74.0394595,40.8779049],[-74.0395468,40.8781037],[-74.039593,40.8782819],[-74.0396256,40.8784236],[-74.0396435,40.8785341],[-74.0396687,40.8786502],[-74.0396905,40.8787437],[-74.0397012,40.8788173],[-74.039676,40.8792277],[-74.0396637,40.8793805],[-74.0396594,40.8794626],[-74.0396478,40.8795163],[-74.039615,40.8795787],[-74.039571,40.8796248],[-74.0394558,40.8797386],[-74.0393225,40.8798387],[-74.038996,40.8800294],[-74.0383006,40.8804334],[-74.0377817,40.8807879],[-74.0375485,40.880988],[-74.0373848,40.8811337],[-74.0371516,40.8813247],[-74.0368244,40.8816182],[-74.0364774,40.88193],[-74.0362041,40.8822534],[-74.0356804,40.8828524],[-74.034863,40.8838521],[-74.0345475,40.8843005],[-74.0319092,40.8836498],[-74.0317464,40.8835888],[-74.0297445,40.8829976],[-74.0288103,40.882627],[-74.02647,40.8818619],[-74.0263347,40.8820158],[-74.0217912,40.8805377],[-74.0238271,40.8742752]]]}}
